{
  "type": "FeatureCollection",
  "features": [
    {
      "type": "Feature",
      "properties": {
        "name": "Storey 1000.0"
      },
      "geometry": {
        "type": "LineString",
        "coordinates": [
          [
            22.71,
            46.52,
            1000.0
          ],
          [
            22.7104,
            46.52,
            1001.0
          ],
          [
            22.7108,
            46.52,
            1002.0
          ],
          [
            22.7112,
            46.52,
            1003.0
          ],
          [
            22.7116,
            46.52,
            1004.0
          ],
          [
            22.712,
            46.52,
            1005.0
          ],
          [
            22.7124,
            46.52,
            1006.0
          ],
          [
            22.7128,
            46.52,
            1007.0
          ],
          [
            22.7132,
            46.52,
            1008.0
          ],
          [
            22.7136,
            46.52,
            1009.0
          ]
        ]
      }
    },
    {
      "type": "Feature",
      "properties": {
        "name": "Storey 1200.0"
      },
      "geometry": {
        "type": "LineString",
        "coordinates": [
          [
            22.71,
            46.53,
            1200.0
          ],
          [
            22.7104,
            46.53,
            1201.0
          ],
          [
            22.7108,
            46.53,
            1202.0
          ],
          [
            22.7112,
            46.53,
            1203.0
          ],
          [
            22.7116,
            46.53,
            1204.0
          ],
          [
            22.712,
            46.53,
            1205.0
          ],
          [
            22.7124,
            46.53,
            1206.0
          ],
          [
            22.7128,
            46.53,
            1207.0
          ],
          [
            22.7132,
            46.53,
            1208.0
          ],
          [
            22.7136,
            46.53,
            1209.0
          ]
        ]
      }
    }
  ]
}
